[{"OBJECT_NAME":"BLUEBON","OBJECT_ID":"2025-009CH","EPOCH":"2026-03-09T16:52:33.225312","MEAN_MOTION":15.29047254,"ECCENTRICITY":0.00011933,"INCLINATION":97.4017,"RA_OF_ASC_NODE":152.2033,"ARG_OF_PERICENTER":43.39,"MEAN_ANOMALY":316.7434,"EPHEMERIS_TYPE":0,"CLASSIFICATION_TYPE":"U","NORAD_CAT_ID":62688,"ELEMENT_SET_NO":999,"REV_AT_EPOCH":6376,"BSTAR":0.00037313027,"MEAN_MOTION_DOT":0.00010452,"MEAN_MOTION_DDOT":0},{"OBJECT_NAME":"STARLINK-36518","OBJECT_ID":"2026-008J","EPOCH":"2026-03-09T10:47:08.437344","MEAN_MOTION":15.27570262,"ECCENTRICITY":0.00022514,"INCLINATION":43.0009,"RA_OF_ASC_NODE":206.7192,"ARG_OF_PERICENTER":268.7225,"MEAN_ANOMALY":91.3369,"EPHEMERIS_TYPE":0,"CLASSIFICATION_TYPE":"U","NORAD_CAT_ID":67453,"ELEMENT_SET_NO":999,"REV_AT_EPOCH":953,"BSTAR":0.0015077101,"MEAN_MOTION_DOT":0.00041449,"MEAN_MOTION_DDOT":0}]
